[Satellite]
VERSION=1.1
NAME=Mayak
NICKNAME=Mayak
TLE1=1 42830U 17042F   18018.79920266  .00000694  00000-0  75425-4 0  9996
TLE2=2 42830  97.6088 286.7383 0014107 339.9554  20.1109 14.91072967 28071
